TEVEL2-4                
1 63213U 25052D   26068.69417973  .00020990  00000+0  70363-3 0  9998
2 63213  97.4009 325.1237 0004733  95.3468 264.8313 15.30925813 54879
STARLINK-34393          
1 64724U 25144A   26068.54619195  .00028306  00000+0  96377-3 0  9994
2 64724  53.1592 181.4423 0000780 122.2197 237.8880 15.30213538 39708
