[{"OBJECT_NAME":"TEVEL2-4","OBJECT_ID":"2025-052D","EPOCH":"2026-03-09T16:39:37.129536","MEAN_MOTION":15.30925813,"ECCENTRICITY":0.0004733,"INCLINATION":97.4009,"RA_OF_ASC_NODE":325.1237,"ARG_OF_PERICENTER":95.3468,"MEAN_ANOMALY":264.8313,"EPHEMERIS_TYPE":0,"CLASSIFICATION_TYPE":"U","NORAD_CAT_ID":63213,"ELEMENT_SET_NO":999,"REV_AT_EPOCH":5487,"BSTAR":0.00070362503,"MEAN_MOTION_DOT":0.0002099,"MEAN_MOTION_DDOT":0},{"OBJECT_NAME":"STARLINK-34393","OBJECT_ID":"2025-144A","EPOCH":"2026-03-09T13:06:30.984480","MEAN_MOTION":15.30213538,"ECCENTRICITY":7.807e-5,"INCLINATION":53.1592,"RA_OF_ASC_NODE":181.4423,"ARG_OF_PERICENTER":122.2197,"MEAN_ANOMALY":237.888,"EPHEMERIS_TYPE":0,"CLASSIFICATION_TYPE":"U","NORAD_CAT_ID":64724,"ELEMENT_SET_NO":999,"REV_AT_EPOCH":3970,"BSTAR":0.00096377369,"MEAN_MOTION_DOT":0.00028306,"MEAN_MOTION_DDOT":0}]
